{
  "type": "FeatureCollection",
  "features": [
    {
      "type": "Feature",
      "properties": {
        "norad_id": 66885,
        "name": "STARLINK-35954",
        "group": "last-30-days",
        "lat": 46.29826214695077,
        "lon": 152.25959165179074,
        "alt_km": 344.2304825311685,
        "timestamp": "2025-12-22T16:55:16.168391+00:00",
        "meta_object_name": "STARLINK-35954",
        "meta_object_id": "2025-283H",
        "meta_epoch": "2025-12-22T06:00:02.000160",
        "meta_mean_motion": 15.74476279,
        "meta_eccentricity": 0.00012191,
        "meta_inclination": 53.1579,
        "meta_ra_of_asc_node": 26.1964,
        "meta_arg_of_pericenter": 73.3162,
        "meta_mean_anomaly": 342.8571,
        "meta_ephemeris_type": 0,
        "meta_classification_type": "U",
        "meta_norad_cat_id": 66885,
        "meta_element_set_no": 999,
        "meta_rev_at_epoch": 395,
        "meta_bstar": -0.013816984,
        "meta_mean_motion_dot": -0.01797153,
        "meta_mean_motion_ddot": 0,
        "tle_line1": "1 66885U 25283H   25356.25002315 -.01797153  00000+0 -13817-1 0  9997",
        "tle_line2": "2 66885  53.1579  26.1964 0001219  73.3162 342.8571 15.74476279  3957"
      },
      "geometry": {
        "type": "Point",
        "coordinates": [
          152.25959165179074,
          46.29826214695077
        ]
      }
    },
    {
      "type": "Feature",
      "properties": {
        "norad_id": 66886,
        "name": "STARLINK-35900",
        "group": "last-30-days",
        "lat": 44.297900213949916,
        "lon": 156.90793401900453,
        "alt_km": 344.5038852295056,
        "timestamp": "2025-12-22T16:55:16.168401+00:00",
        "meta_object_name": "STARLINK-35900",
        "meta_object_id": "2025-283J",
        "meta_epoch": "2025-12-22T06:00:02.000160",
        "meta_mean_motion": 15.74479999,
        "meta_eccentricity": 0.0001237,
        "meta_inclination": 53.1579,
        "meta_ra_of_asc_node": 26.1882,
        "meta_arg_of_pericenter": 82.7544,
        "meta_mean_anomaly": 337.252,
        "meta_ephemeris_type": 0,
        "meta_classification_type": "U",
        "meta_norad_cat_id": 66886,
        "meta_element_set_no": 999,
        "meta_rev_at_epoch": 395,
        "meta_bstar": -0.013885802,
        "meta_mean_motion_dot": -0.01805246,
        "meta_mean_motion_ddot": 0,
        "tle_line1": "1 66886U 25283J   25356.25002315 -.01805246  00000+0 -13886-1 0  9997",
        "tle_line2": "2 66886  53.1579  26.1882 0001237  82.7544 337.2520 15.74479999  3959"
      },
      "geometry": {
        "type": "Point",
        "coordinates": [
          156.90793401900453,
          44.297900213949916
        ]
      }
    },
    {
      "type": "Feature",
      "properties": {
        "norad_id": 66887,
        "name": "STARLINK-35925",
        "group": "last-30-days",
        "lat": 43.22588875258455,
        "lon": 159.11916333590915,
        "alt_km": 344.8134036542533,
        "timestamp": "2025-12-22T16:55:16.168411+00:00",
        "meta_object_name": "STARLINK-35925",
        "meta_object_id": "2025-283K",
        "meta_epoch": "2025-12-22T06:00:02.000160",
        "meta_mean_motion": 15.74475408,
        "meta_eccentricity": 0.00013537,
        "meta_inclination": 53.1577,
        "meta_ra_of_asc_node": 26.1845,
        "meta_arg_of_pericenter": 59.5168,
        "meta_mean_anomaly": 2.4078,
        "meta_ephemeris_type": 0,
        "meta_classification_type": "U",
        "meta_norad_cat_id": 66887,
        "meta_element_set_no": 999,
        "meta_rev_at_epoch": 395,
        "meta_bstar": -0.01381825,
        "meta_mean_motion_dot": -0.01797344,
        "meta_mean_motion_ddot": 0,
        "tle_line1": "1 66887U 25283K   25356.25002315 -.01797344  00000+0 -13818-1 0  9992",
        "tle_line2": "2 66887  53.1577  26.1845 0001353  59.5168   2.4078 15.74475408  3950"
      },
      "geometry": {
        "type": "Point",
        "coordinates": [
          159.11916333590915,
          43.22588875258455
        ]
      }
    },
    {
      "type": "Feature",
      "properties": {
        "norad_id": 66888,
        "name": "STARLINK-35919",
        "group": "last-30-days",
        "lat": 42.11475200002631,
        "lon": 161.24839104151346,
        "alt_km": 344.96349888788427,
        "timestamp": "2025-12-22T16:55:16.168421+00:00",
        "meta_object_name": "STARLINK-35919",
        "meta_object_id": "2025-283L",
        "meta_epoch": "2025-12-22T06:00:02.000160",
        "meta_mean_motion": 15.744899,
        "meta_eccentricity": 0.00014574,
        "meta_inclination": 53.1577,
        "meta_ra_of_asc_node": 26.1803,
        "meta_arg_of_pericenter": 61.9591,
        "meta_mean_anomaly": 1.8782,
        "meta_ephemeris_type": 0,
        "meta_classification_type": "U",
        "meta_norad_cat_id": 66888,
        "meta_element_set_no": 999,
        "meta_rev_at_epoch": 395,
        "meta_bstar": -0.013982417,
        "meta_mean_motion_dot": -0.01817081,
        "meta_mean_motion_ddot": 0,
        "tle_line1": "1 66888U 25283L   25356.25002315 -.01817081  00000+0 -13982-1 0  9996",
        "tle_line2": "2 66888  53.1577  26.1803 0001457  61.9591   1.8782 15.74489900  3954"
      },
      "geometry": {
        "type": "Point",
        "coordinates": [
          161.24839104151346,
          42.11475200002631
        ]
      }
    },
    {
      "type": "Feature",
      "properties": {
        "norad_id": 66889,
        "name": "STARLINK-35852",
        "group": "last-30-days",
        "lat": 40.972050520034536,
        "lon": 163.29165363137014,
        "alt_km": 345.0622954462615,
        "timestamp": "2025-12-22T16:55:16.168431+00:00",
        "meta_object_name": "STARLINK-35852",
        "meta_object_id": "2025-283M",
        "meta_epoch": "2025-12-22T06:00:02.000160",
        "meta_mean_motion": 15.74477692,
        "meta_eccentricity": 0.00012334,
        "meta_inclination": 53.1579,
        "meta_ra_of_asc_node": 26.1759,
        "meta_arg_of_pericenter": 81.1925,
        "meta_mean_anomaly": 344.5607,
        "meta_ephemeris_type": 0,
        "meta_classification_type": "U",
        "meta_norad_cat_id": 66889,
        "meta_element_set_no": 999,
        "meta_rev_at_epoch": 395,
        "meta_bstar": -0.013823598,
        "meta_mean_motion_dot": -0.01798013,
        "meta_mean_motion_ddot": 0,
        "tle_line1": "1 66889U 25283M   25356.25002315 -.01798013  00000+0 -13824-1 0  9995",
        "tle_line2": "2 66889  53.1579  26.1759 0001233  81.1925 344.5607 15.74477692  3952"
      },
      "geometry": {
        "type": "Point",
        "coordinates": [
          163.29165363137014,
          40.972050520034536
        ]
      }
    },
    {
      "type": "Feature",
      "properties": {
        "norad_id": 66890,
        "name": "STARLINK-35885",
        "group": "last-30-days",
        "lat": 39.79929534455252,
        "lon": 165.2561970456101,
        "alt_km": 345.27315040093345,
        "timestamp": "2025-12-22T16:55:16.168443+00:00",
        "meta_object_name": "STARLINK-35885",
        "meta_object_id": "2025-283N",
        "meta_epoch": "2025-12-22T06:00:02.000160",
        "meta_mean_motion": 15.74657179,
        "meta_eccentricity": 7.649e-05,
        "meta_inclination": 53.1577,
        "meta_ra_of_asc_node": 26.1726,
        "meta_arg_of_pericenter": 112.5017,
        "meta_mean_anomaly": 314.9915,
        "meta_ephemeris_type": 0,
        "meta_classification_type": "U",
        "meta_norad_cat_id": 66890,
        "meta_element_set_no": 999,
        "meta_rev_at_epoch": 395,
        "meta_bstar": -0.014908679,
        "meta_mean_motion_dot": -0.01932742,
        "meta_mean_motion_ddot": 0,
        "tle_line1": "1 66890U 25283N   25356.25002315 -.01932742  00000+0 -14909-1 0  9991",
        "tle_line2": "2 66890  53.1577  26.1726 0000764 112.5017 314.9915 15.74657179  3958"
      },
      "geometry": {
        "type": "Point",
        "coordinates": [
          165.2561970456101,
          39.79929534455252
        ]
      }
    },
    {
      "type": "Feature",
      "properties": {
        "norad_id": 66891,
        "name": "STARLINK-35855",
        "group": "last-30-days",
        "lat": 38.57421067158391,
        "lon": 167.18490596846553,
        "alt_km": 345.4157639291925,
        "timestamp": "2025-12-22T16:55:16.168453+00:00",
        "meta_object_name": "STARLINK-35855",
        "meta_object_id": "2025-283P",
        "meta_epoch": "2025-12-22T06:00:02.000160",
        "meta_mean_motion": 15.74474843,
        "meta_eccentricity": 0.00011179,
        "meta_inclination": 53.1579,
        "meta_ra_of_asc_node": 26.1681,
        "meta_arg_of_pericenter": 97.7659,
        "meta_mean_anomaly": 331.8202,
        "meta_ephemeris_type": 0,
        "meta_classification_type": "U",
        "meta_norad_cat_id": 66891,
        "meta_element_set_no": 999,
        "meta_rev_at_epoch": 395,
        "meta_bstar": -0.013758096,
        "meta_mean_motion_dot": -0.01790273,
        "meta_mean_motion_ddot": 0,
        "tle_line1": "1 66891U 25283P   25356.25002315 -.01790273  00000+0 -13758-1 0  9994",
        "tle_line2": "2 66891  53.1579  26.1681 0001117  97.7659 331.8202 15.74474843  3952"
      },
      "geometry": {
        "type": "Point",
        "coordinates": [
          167.18490596846553,
          38.57421067158391
        ]
      }
    }
  ]
}